[ {"name": "STARLINK-30452", "line1": "1 57925U 23147N   26140.09546582  .00005798  00000+0  22001-3 0  9993", "line2": "2 57925  42.9998 282.3625 0001401 280.6897  79.3797 15.27588086147515"}, {"name": "STARLINK-30468", "line1": "1 57926U 23147P   26140.37950272 -.00003218  00000+0 -10747-3 0  9991", "line2": "2 57926  42.9947 283.6081 0000884 229.4565 130.6210 15.27584134147529"}, {"name": "STARLINK-30448", "line1": "1 57928U 23147R   26140.13208987  .00002451  00000+0  98554-4 0  9995", "line2": "2 57928  43.0045 285.1855 0001390 272.5928  87.4765 15.27579928147487"}, {"name": "STARLINK-30476", "line1": "1 57930U 23147T   26140.50003471  .00871866  00000+0  66641-2 0  9994", "line2": "2 57930  42.9920 214.6932 0016707 211.1055 161.6504 15.69038173  5905"}, {"name": "STARLINK-30488", "line1": "1 57931U 23147U   26140.46287558 -.00000035  00000+0  82549-5 0  9991", "line2": "2 57931  43.0046 283.3655 0001396 246.5435 113.5270 15.27585858147560"}, {"name": "STARLINK-30471", "line1": "1 57932U 23147V   26139.71071097  .00001246  00000+0  54803-4 0  9992", "line2": "2 57932  43.0030 283.7854 0001226 266.5257  93.5454 15.27576078147469"}, {"name": "STARLINK-30461", "line1": "1 57933U 23147W   26140.09917357  .00000636  00000+0  32634-4 0  9994", "line2": "2 57933  43.0024 281.5419 0001211 271.1051  88.9662 15.27584985147526"}, {"name": "STARLINK-30712", "line1": "1 57935U 23148A   26140.45553313  .00095124  00000+0  28247-2 0  9994", "line2": "2 57935  53.1605  50.6964 0000455 118.2672 241.8377 15.34021377149416"}, {"name": "STARLINK-30716", "line1": "1 57936U 23148B   26140.04277309 -.00001191  00000+0 -28091-4 0  9990", "line2": "2 57936  53.1605  52.9987 0001159  78.4952 281.6179 15.30207284149340"}, {"name": "STARLINK-30400", "line1": "1 57937U 23148C   26140.47361288  .00002181  00000+0  85793-4 0  9998", "line2": "2 57937  53.1606  50.7604 0001430  95.9299 264.1865 15.30182717149413"}, {"name": "STARLINK-30710", "line1": "1 57938U 23148D   26140.04579422  .00000054  00000+0  12751-4 0  9994", "line2": "2 57938  53.1624  42.5219 0001305  94.1724 265.9428 15.34392951149488"}, {"name": "STARLINK-30714", "line1": "1 57939U 23148E   26139.98379243  .00002625  00000+0  10071-3 0  9993", "line2": "2 57939  53.1599  53.3271 0001080  81.1676 278.9447 15.30204628149338"}, {"name": "STARLINK-30711", "line1": "1 57940U 23148F   26140.04594617  .00000287  00000+0  21824-4 0  9999", "line2": "2 57940  53.1612  53.0247 0001237  78.6088 281.5051 15.30198330149342"}, {"name": "STARLINK-30715", "line1": "1 57941U 23148G   26140.45258529 -.00000213  00000+0  49293-5 0  9995", "line2": "2 57941  53.1615  40.6536 0001298 111.1052 249.0087 15.30195646149558"}, {"name": "STARLINK-30455", "line1": "1 57942U 23148H   26140.44415841 -.00000440  00000+0 -27461-5 0  9993", "line2": "2 57942  53.1606  51.1882 0001125  74.0598 286.0527 15.30199783149401"}, {"name": "STARLINK-30456", "line1": "1 57943U 23148J   26140.03962533  .00000155  00000+0  17374-4 0  9996", "line2": "2 57943  53.1611  53.0585 0001259  82.3004 277.8140 15.30198092149345"}, {"name": "STARLINK-30708", "line1": "1 57944U 23148K   26140.50003471  .00007819  00000+0  24902-3 0  9994", "line2": "2 57944  53.1607  50.6676 0001153  73.5318  73.2138 15.33523672  5859"}, {"name": "STARLINK-30705", "line1": "1 57945U 23148L   26140.47816264  .00000702  00000+0  32681-4 0  9991", "line2": "2 57945  53.1620  50.8278 0001188  83.3354 276.7783 15.33539910149411"}, {"name": "STARLINK-30704", "line1": "1 57946U 23148M   26140.24735677  .00000392  00000+0  25367-4 0  9993", "line2": "2 57946  53.1605 129.0641 0001238  76.3107 283.8032 15.30195157148279"}, {"name": "STARLINK-30706", "line1": "1 57947U 23148N   26140.45141727  .00000057  00000+0  12834-4 0  9997", "line2": "2 57947  53.1609  50.6461 0001141  90.2401 269.8732 15.34394058149411"}, {"name": "STARLINK-30707", "line1": "1 57949U 23148Q   26140.07532967  .00001347  00000+0  51008-4 0  9996", "line2": "2 57949  53.1619  52.5715 0000836  87.4533 272.6566 15.34385024149354"}, {"name": "STARLINK-30701", "line1": "1 57950U 23148R   26140.48416490 -.00000770  00000+0 -13891-4 0  9994", "line2": "2 57950  53.1619  50.8393 0001343  79.9549 280.1603 15.30193277149412"}, {"name": "STARLINK-30399", "line1": "1 57951U 23148S   26140.06691275  .00000214  00000+0  17476-4 0  9999", "line2": "2 57951  53.1616  52.5017 0001276  88.5054 271.6095 15.34390731149355"}, {"name": "STARLINK-30713", "line1": "1 57952U 23148T   26140.07223416  .00001387  00000+0  58948-4 0  9990", "line2": "2 57952  53.1600  52.5581 0001229  88.9731 271.1410 15.30194632149353"}, {"name": "STARLINK-30700", "line1": "1 57953U 23148U   26140.04492722  .00001182  00000+0  52041-4 0  9997", "line2": "2 57953  53.1621  42.7692 0001208 108.0444 252.0689 15.30201068149485"}, {"name": "STARLINK-30703", "line1": "1 57954U 23148V   26140.45763279  .00004501  00000+0  14438-3 0  9996", "line2": "2 57954  53.1609  40.6170 0001174  87.2436 272.8701 15.34375950149550"}, {"name": "STARLINK-30702", "line1": "1 57955U 23148W   26140.41469485  .00000085  00000+0  15006-4 0  9991", "line2": "2 57955  53.1610  41.0535 0001132  87.8207 272.2924 15.30202835149546"}, {"name": "STARLINK-30396", "line1": "1 57964U 23151A   26139.76969376  .00004589  00000+0  17621-3 0  9992", "line2": "2 57964  43.0021 294.8915 0001295 266.8259  93.2445 15.27576949146638"}, {"name": "STARLINK-30524", "line1": "1 57965U 23151B   26140.48252235  .00001868  00000+0  77396-4 0  9996", "line2": "2 57965  42.9982 290.7784 0001734 247.6187 112.4481 15.27580631146746"}, {"name": "STARLINK-30521", "line1": "1 57966U 23151C   26140.12218112  .00002697  00000+0  10749-3 0  9993", "line2": "2 57966  43.0055 292.3755 0001318 264.1189  95.9512 15.27581952146691"}, {"name": "STARLINK-30528", "line1": "1 57967U 23151D   26140.45297131  .00001672  00000+0  70272-4 0  9998", "line2": "2 57967  43.0067 290.5581 0001291 269.0646  91.0058 15.27576813146742"}, {"name": "STARLINK-30495", "line1": "1 57968U 23151E   26140.46710128  .00000175  00000+0  15868-4 0  9993", "line2": "2 57968  43.0031 290.6607 0001256 272.9500  87.1207 15.27585116146745"}, {"name": "STARLINK-30494", "line1": "1 57970U 23151G   26140.28139728  .00001345  00000+0  58410-4 0  9997", "line2": "2 57970  43.0040 146.2388 0001626 280.9959  79.0709 15.27573740148400"}, {"name": "STARLINK-30498", "line1": "1 57971U 23151H   26140.46324538  .00003515  00000+0  13719-3 0  9996", "line2": "2 57971  43.0032 290.6182 0001487 277.8127  82.2556 15.27585702146747"}, {"name": "STARLINK-30505", "line1": "1 57972U 23151J   26139.76712880  .00015234  00000+0  56154-3 0  9990", "line2": "2 57972  43.0008 294.8503 0001719 278.1561  81.9095 15.27605682146630"}, {"name": "STARLINK-30502", "line1": "1 57973U 23151K   26140.45939228  .00000464  00000+0  26374-4 0  9997", "line2": "2 57973  43.0029 290.5919 0001290 271.0467  89.0237 15.27581362146746"}, {"name": "STARLINK-30489", "line1": "1 57974U 23151L   26140.46453308  .00001700  00000+0  71302-4 0  9994", "line2": "2 57974  43.0052 290.6323 0001899 266.4885  93.5749 15.27576848146741"}, {"name": "STARLINK-30503", "line1": "1 57975U 23151M   26140.49279738  .00003995  00000+0  15461-3 0  9992", "line2": "2 57975  43.0031 290.8166 0001651 277.2610  82.8054 15.27584797146740"}, {"name": "STARLINK-30512", "line1": "1 57976U 23151N   26140.45682933  .00001196  00000+0  52994-4 0  9998", "line2": "2 57976  43.0031 290.5190 0001242 270.3805  89.6904 15.27576230146743"}, {"name": "STARLINK-30509", "line1": "1 57977U 23151P   26139.76528986  .00002856  00000+0  11326-3 0  9995", "line2": "2 57977  42.9986 309.2695 0001337 275.7950  84.2749 15.27582018146462"}, {"name": "STARLINK-30511", "line1": "1 57978U 23151Q   26140.16404124  .00008767  00000+0  32750-3 0  9990", "line2": "2 57978  43.0028 307.1054 0001459 266.0805  93.9880 15.27603234146529"}, {"name": "STARLINK-30508", "line1": "1 57979U 23151R   26140.49483492  .00003692  00000+0  14363-3 0  9994", "line2": "2 57979  43.0031 305.2810 0001531 262.5107  97.5571 15.27576150146578"}, {"name": "STARLINK-30510", "line1": "1 57981U 23151T   26140.47248103 -.00001205  00000+0 -34271-4 0  9994", "line2": "2 57981  43.0018 308.5236 0001858 265.0193  95.0446 15.27567477146531"}, {"name": "STARLINK-30507", "line1": "1 57982U 23151U   26140.54172240  .00001770  00000+0  73841-4 0  9992", "line2": "2 57982  43.0030 308.1836 0001528 271.8214  88.2463 15.27583278146531"}, {"name": "STARLINK-30515", "line1": "1 57983U 23151V   26139.76094338  .00000978  00000+0  45049-4 0  9994", "line2": "2 57983  43.0020 312.6402 0001431 271.0659  89.0029 15.27577973146417"}, {"name": "STARLINK-30516", "line1": "1 57984U 23151W   26140.54943279  .00001956  00000+0  80562-4 0  9996", "line2": "2 57984  43.0031 308.2446 0001453 263.0697  96.9989 15.27583380146541"}, {"name": "STARLINK-30519", "line1": "1 57985U 23151X   26140.49996301  .00001135  00000+0  50788-4 0  9991", "line2": "2 57985  43.0073 305.3233 0001359 266.3417  93.7279 15.27576549146514"}, {"name": "STARLINK-30537", "line1": "1 57991U 23153A   26140.39423963  .00000812  00000+0  39053-4 0  9991", "line2": "2 57991  43.0055  22.0259 0001907 252.8264 107.2379 15.27582787145760"}, {"name": "STARLINK-30534", "line1": "1 57992U 23153B   26140.05317350  .00003020  00000+0  11919-3 0  9991", "line2": "2 57992  43.0048  23.7609 0001366 252.0019 108.0684 15.27587578145715"}, {"name": "STARLINK-30536", "line1": "1 57993U 23153C   26140.39809997  .00003645  00000+0  14200-3 0  9991", "line2": "2 57993  43.0064  22.0498 0001913 241.6770 118.3888 15.27564600145865"}, {"name": "STARLINK-30538", "line1": "1 57994U 23153D   26139.94810338 -.00001492  00000+0 -44683-4 0  9991", "line2": "2 57994  43.0043  24.6905 0001253 264.6891  95.3818 15.27588227145699"}, {"name": "STARLINK-30517", "line1": "1 57995U 23153E   26139.96223775 -.00001685  00000+0 -51744-4 0  9997", "line2": "2 57995  43.0031  24.7935 0001400 263.1908  96.8784 15.27573704145791"}]